[{"OBJECT_NAME":"SATELIOT_1","OBJECT_ID":"2024-149CL","EPOCH":"2026-03-09T18:08:18.068352","MEAN_MOTION":14.97604186,"ECCENTRICITY":0.00077489,"INCLINATION":97.6798,"RA_OF_ASC_NODE":146.3176,"ARG_OF_PERICENTER":58.9869,"MEAN_ANOMALY":301.2113,"EPHEMERIS_TYPE":0,"CLASSIFICATION_TYPE":"U","NORAD_CAT_ID":60550,"ELEMENT_SET_NO":999,"REV_AT_EPOCH":8518,"BSTAR":0.00029754021,"MEAN_MOTION_DOT":3.421e-5,"MEAN_MOTION_DDOT":0},{"OBJECT_NAME":"STARLINK-35841","OBJECT_ID":"2025-298M","EPOCH":"2026-03-09T22:54:39.942144","MEAN_MOTION":14.99142936,"ECCENTRICITY":0.00019097,"INCLINATION":70.0024,"RA_OF_ASC_NODE":13.923,"ARG_OF_PERICENTER":284.3546,"MEAN_ANOMALY":75.7401,"EPHEMERIS_TYPE":0,"CLASSIFICATION_TYPE":"U","NORAD_CAT_ID":67086,"ELEMENT_SET_NO":999,"REV_AT_EPOCH":1325,"BSTAR":0.00075918804,"MEAN_MOTION_DOT":9.169e-5,"MEAN_MOTION_DDOT":0}]
